NSS-11                  
1 26554U 00059A   26190.32734226  .00000036  00000+0  00000+0 0  9990
2 26554   2.1806  81.1282 0002804  33.8694 106.1154  1.00272383 41515
AMC-6                   
1 26580U 00067A   26190.24697481  .00000102  00000+0  00000+0 0  9994
2 26580   0.2053  83.5893 0003845  36.9273 120.5400  1.00270596 94116
AMC-15                  
1 28446U 04041A   26190.33979545 -.00000075  00000+0  00000+0 0  9997
2 28446   0.0299 309.1063 0002281 173.5677 181.8774  1.00271357 79522
NSS-10                  
1 28526U 05003A   26190.31642144 -.00000244  00000+0  00000+0 0  9993
2 28526   6.5018  70.1822 0002754  44.1272 249.4016  1.00270213 53373
ASTRA 1KR               
1 29055U 06012A   26190.28864119  .00000132  00000+0  00000+0 0  9991
2 29055   0.5277  83.1958 0003302  22.4428 304.5099  1.00273446 45914
ASTRA 1L                
1 31306U 07016A   26190.31086377 -.00000172  00000+0  00000+0 0  9999
2 31306   1.3759  81.4014 0005306  30.6733 262.5790  1.00270848 45206
ASTRA 4A                
1 32299U 07057A   26190.29419885  .00000046  00000+0  00000+0 0  9996
2 32299   0.0392 289.5348 0002289 183.4583 284.9598  1.00269669 51867
ASTRA 1M                
1 33436U 08057A   26190.28864119  .00000134  00000+0  00000+0 0  9992
2 33436   0.3501  82.7224 0004823  39.9763 287.8435  1.00273687 45953
NSS-9                   
1 33749U 09008A   26189.82089343  .00000085  00000+0  00000+0 0  9997
2 33749   1.3144  82.4509 0001987  15.0426 307.8663  1.00269963 63730
SES-7 (PROTOSTAR 2)     
1 34941U 09027A   26190.30509965 -.00000331  00000+0  00000+0 0  9990
2 34941   0.0158  48.7242 0001366 146.3570 310.2384  1.00269607 62859
NSS-12                  
1 36032U 09058A   26190.22371355  .00000085  00000+0  00000+0 0  9993
2 36032   0.0492 282.0136 0004188 151.6785 351.0298  1.00273456 61134
SES-1                   
1 36516U 10016A   26189.90724572 -.00000100  00000+0  00000+0 0  9991
2 36516   0.0287 302.6869 0002537 163.0095  46.7589  1.00270649 59254
ASTRA 3B                
1 36581U 10021A   26190.28864119  .00000149  00000+0  00000+0 0  9996
2 36581   1.5254  83.2880 0004268  20.7046 310.6497  1.00274290 59087
SES-3                   
1 37748U 11035A   26190.27171446 -.00000089  00000+0  00000+0 0  9995
2 37748   1.3807  82.8465 0002003  23.6323 175.5590  1.00271247 54811
ASTRA 1N                
1 37775U 11041A   26190.28864119  .00000133  00000+0  00000+0 0  9998
2 37775   0.0712  30.1564 0005652  77.0770 303.1247  1.00268460 44742
SES-2                   
1 37809U 11049A   26189.83866017 -.00000181  00000+0  00000+0 0  9996
2 37809   0.1108  91.9837 0002701  16.1707  33.5477  1.00270521 54183
QUETZSAT 1              
1 37826U 11054A   26190.26845816 -.00000228  00000+0  00000+0 0  9996
2 37826   0.0146 332.7293 0002711 146.4766 187.6401  1.00269757 50091
SES-4                   
1 38087U 12007A   26189.63776221 -.00000154  00000+0  00000+0 0  9995
2 38087   0.0204  53.7161 0002433  52.7745  27.6850  1.00269814 52443
SES-5                   
1 38652U 12036A   26190.29419885  .00000047  00000+0  00000+0 0  9999
2 38652   0.0448 320.7099 0001985 147.8262 289.5875  1.00268991 44676
ASTRA 2F                
1 38778U 12051A   26190.28925826  .00000164  00000+0  00000+0 0  9991
2 38778   0.0578 246.3106 0002810 297.4295 235.8633  1.00274707 41357
SES-6                   
1 39172U 13026A   26190.31642144 -.00000248  00000+0  00000+0 0  9990
2 39172   0.0164  13.8631 0002367  90.6525 256.1407  1.00269600 47945
O3B FM5                 
1 39188U 13031A   26190.22783165 -.00000010  00000+0  00000+0 0  9999
2 39188   0.0958 337.1166 0002837 116.6989 266.2175  5.00115602238147
O3B FM4                 
1 39189U 13031B   26189.34782129 -.00000009  00000+0  00000+0 0  9998
2 39189   0.0407 347.0450 0004579 107.1398 265.8682  5.00115339238108
O3B FM2                 
1 39190U 13031C   26190.21285881 -.00000010  00000+0  00000+0 0  9993
2 39190   0.0354 343.1542 0002721 120.9250 255.9515  5.00116035238207
O3B PFM                 
1 39191U 13031D   26190.02708794 -.00000010  00000+0  00000+0 0  9996
2 39191   0.0668 347.6246 0005310 109.5969 262.8394  5.00116112237761
ASTRA 2E                
1 39285U 13056A   26190.28934493  .00000164  00000+0  00000+0 0  9991
2 39285   0.0649 326.2841 0002578 150.9574 302.6331  1.00270875 46634
SES-8                   
1 39460U 13071A   26190.15461391 -.00000255  00000+0  00000+0 0  9993
2 39460   0.0524 264.4962 0002708 205.4114 327.8449  1.00269823 44648
ASTRA 5B                
1 39617U 14011B   26190.28864119  .00000151  00000+0  00000+0 0  9995
2 39617   0.0646 311.6431 0001830 162.4981 300.4906  1.00271384 44888
O3B FM3                 
1 40079U 14038A   26189.89388587 -.00000010  00000+0  00000+0 0  9998
2 40079   0.0477 352.8227 0002584 168.9081 198.2790  5.00115691214136
O3B FM7                 
1 40080U 14038B   26189.64011761 -.00000010  00000+0  00000+0 0  9990
2 40080   0.0455 343.9990 0003643  92.8850 283.1573  5.00115642218951
O3B FM6                 
1 40081U 14038C   26189.66709183 -.00000010  00000+0  00000+0 0  9995
2 40081   0.0463 349.8405 0002613 113.8250 256.3642  5.00115732218905
O3B FM8                 
1 40082U 14038D   26189.32055104 -.00000009  00000+0  00000+0 0  9994
2 40082   0.0461 348.5098 0002770 119.0937 252.4274  5.00116076219004
O3B FM10                
1 40348U 14083A   26189.14792988 -.00000009  00000+0  00000+0 0  9997
2 40348   0.0418 347.3310 0004929 103.0908 269.6354  5.00115457210949
O3B FM11                
1 40349U 14083B   26189.96012126 -.00000010  00000+0  00000+0 0  9999
2 40349   0.0552 351.8933 0002566  98.6840 269.4527  5.00115503211009
O3B FM12                
1 40350U 14083C   26189.38744489 -.00000010  00000+0  00000+0 0  9991
2 40350   0.0543 352.1670 0002501 111.4391 256.4223  5.00115947210984
O3B FM9                 
1 40351U 14083D   26190.21383383 -.00000010  00000+0  00000+0 0  9998
2 40351   0.0560 350.9729 0002680 114.7806 254.2765  5.00115992211168
ASTRA 2G                
1 40364U 14089A   26190.28925826  .00000163  00000+0  00000+0 0  9997
2 40364   0.0461   9.8561 0004398  67.0411 342.6636  1.00272518 42183
SES-9                   
1 41380U 16013A   26190.00823541 -.00000331  00000+0  00000+0 0  9994
2 41380   0.0161 326.3722 0002234 139.2826 292.5658  1.00271987 37656
SES-10                  
1 42432U 17017A   26189.55754756 -.00000258  00000+0  00000+0 0  9995
2 42432   0.0182  44.2893 0002617  67.0918 308.9449  1.00270497 33963
SES-15                  
1 42709U 17026A   26190.28015922  .00000073  00000+0  00000+0 0  9993
2 42709   0.0249 323.7034 0000932 189.4272 105.7907  1.00272478  7656
SES-11 (ECHOSTAR 105)   
1 42967U 17063A   26190.09372993 -.00000075  00000+0  00000+0 0  9996
2 42967   0.0143  14.9585 0002610  95.7986 105.0690  1.00270810 31940
SES-14                  
1 43175U 18012B   26189.70402160 -.00000264  00000+0  00000+0 0  9999
2 43175   0.0135  29.5325 0000966  80.9525  22.1119  1.00269978  7248
O3B FM15                
1 43231U 18024A   26189.48108709 -.00000010  00000+0  00000+0 0  9991
2 43231   0.0524   0.1714 0002600 106.1663 253.6915  5.00115774152087
O3B FM16                
1 43232U 18024B   26189.73330237 -.00000010  00000+0  00000+0 0  9993
2 43232   0.0526   4.6798 0002628 100.3089 255.0410  5.00115951152026
O3B FM14                
1 43233U 18024C   26190.17389719 -.00000010  00000+0  00000+0 0  9993
2 43233   0.0515   5.6734 0002875 100.8446 253.5141  5.00115718152050
O3B FM13                
1 43234U 18024D   26188.24086837 -.00000009  00000+0  00000+0 0  9992
2 43234   0.0523 325.0263 0002390  87.3738 307.6221  5.00115686152066
SES-12                  
1 43488U 18049A   26190.30241297 -.00000256  00000+0  00000+0 0  9997
2 43488   0.0104   3.6623 0000807 259.5027 227.9476  1.00271630 29647
O3B FM20                
1 44112U 19020A   26189.40039865 -.00000010  00000+0  00000+0 0  9995
2 44112   0.0524 356.4763 0002374 102.6956 260.8555  5.00115578132632
O3B FM19                
1 44113U 19020B   26189.22751754 -.00000009  00000+0  00000+0 0  9992
2 44113   0.0743 335.0245 0003766 112.1003 272.9190  5.00115960132497
O3B FM17                
1 44114U 19020C   26189.50758422 -.00000010  00000+0  00000+0 0  9995
2 44114   0.0358  10.4846 0002576  94.9314 254.6130  5.00115589132589
O3B FM18                
1 44115U 19020D   26189.65381446 -.00000010  00000+0  00000+0 0  9990
2 44115   0.0529 356.2756 0002743 111.2048 252.5502  5.00115385132724
SES-17                  
1 49332U 21095A   26189.77143299 -.00000258  00000+0  00000+0 0  9990
2 49332   0.0230  44.4860 0000891  69.7042  23.1428  1.00268746 18070
SES-22                  
1 52933U 22071A   26190.24697481  .00000118  00000+0  00000+0 0  9991
2 52933   0.0243 293.4978 0000906 164.0573 139.5416  1.00269380  7742
SES-20                  
1 53960U 22123A   26189.90663904 -.00000086  00000+0  00000+0 0  9999
2 53960   0.0191  65.8890 0001859  27.0010  57.2452  1.00269593 13751
SES-21                  
1 53961U 22123B   26190.26453648  .00000000  00000+0  00000+0 0  9998
2 53961   0.0381  29.1219 0001102  80.4751 141.9183  1.00268184  7432
O3B MPOWER F1           
1 54755U 22174A   26189.92314688 -.00000010  00000+0  00000+0 0  9999
2 54755   0.0498 339.7190 0006579 139.0359 226.2079  5.00114736 66443
O3B MPOWER F2           
1 54756U 22174B   26189.69835474 -.00000010  00000+0  00000+0 0  9995
2 54756   0.0457 339.8716 0005811 122.4205 257.7736  5.00114947 66520
SES-18                  
1 55970U 23038A   26190.27916120 -.00000088  00000+0  00000+0 0  9993
2 55970   0.0521 265.8091 0000587 301.1184  77.6980  1.00271559 12320
SES-19                  
1 55971U 23038B   26190.24697481  .00000101  00000+0  00000+0 0  9992
2 55971   0.0297 296.2339 0001685 182.1465 122.8179  1.00271938 12316
O3B MPOWER F4           
1 56367U 23059A   26189.96248133 -.00000010  00000+0  00000+0 0  9998
2 56367   0.0630 350.9475 0007721 120.6255 248.5099  5.00115423 59696
O3B MPOWER F3           
1 56368U 23059B   26189.39595489 -.00000010  00000+0  00000+0 0  9995
2 56368   0.0637 350.3841 0006682 113.7717 255.9192  5.00116465 55796
O3B MPOWER F5           
1 58346U 23175A   26190.09661691 -.00000010  00000+0  00000+0 0  9990
2 58346   0.0515   9.6761 0005426 116.0859 234.2889  5.00115834 50531
O3B MPOWER F6           
1 58347U 23175B   26189.39752959 -.00000010  00000+0  00000+0 0  9990
2 58347   0.0535   1.4475 0004435 103.2504 255.3518  5.00115789 49417
ASTRA 1P (SES-24)       
1 60086U 24115A   26189.50335009  .00000134  00000+0  00000+0 0  9990
2 60086   0.0639 334.2708 0000596 223.6863 288.9173  1.00268214  7411
O3B MPOWER F7           
1 62362U 24244A   26189.86370577 -.00000010  00000+0  00000+0 0  9994
2 62362   0.0663 343.9045 0005960 119.0338 257.1290  5.00115302 27618
O3B MPOWER F8           
1 62363U 24244B   26190.23043388 -.00000010  00000+0  00000+0 0  9995
2 62363   0.0142 356.6044 0005803 100.1016 263.3606  5.00115020 21971
O3B MPOWER F9           
1 64866U 25153A   26189.96393320 -.00000010  00000+0  00000+0 0  9997
2 64866   0.0607   6.4260 0006653 120.0499 233.5860  5.00115664 20656
O3B MPOWER F10          
1 64867U 25153B   26189.73008395 -.00000010  00000+0  00000+0 0  9998
2 64867   0.0578   2.9426 0002280 245.0965 111.9372  5.00114920 23112
